SL-14 R/B               
1 18749U 88001B   22006.57688895  .00000114  00000+0  11012-4 0  9996
2 18749  82.5135 185.2047 0017675 222.6439 200.1012 14.83300864816082
COSMOS 1933             
1 18958U 88020A   22006.34555184  .00001061  00000+0  74405-4 0  9995
2 18958  82.5304 297.0632 0012255  25.5329 334.6500 15.04141773820436
SL-3 R/B                
1 19046U 88032B   22006.52286126 -.00000130  00000+0 -51269-5 0  9996
2 19046  97.3886  12.7455 0039086  72.0064 288.5416 15.03169171822282
SL-16 R/B               
1 19120U 88039B   22006.55668382  .00000002  00000+0  23924-4 0  9999
2 19120  71.0153  48.0775 0021083 162.1496 198.0374 14.19231959742252
COSMOS 1953             
1 19210U 88050A   22006.58437806  .00001090  00000+0  71575-4 0  9993
2 19210  82.5146 218.1404 0013269 345.8057  14.2795 15.06574918807182
SL-8 R/B                
1 19257U 88053B   22006.53459869  .00000036  00000+0  20619-4 0  9997
2 19257  74.0487  36.3703 0021594 236.9406 231.9105 14.37547388757638
COSMOS 1975             
1 19573U 88093A   22006.50816179  .00000284  00000+0  17709-4 0  9991
2 19573  82.5187 173.7539 0014726  32.0388 328.1731 15.05480254788919
SL-14 R/B               
1 19574U 88093B   22006.54972448  .00000112  00000+0  10696-4 0  9996
2 19574  82.5313  28.7965 0022370  32.3798  80.7305 14.83412689775089
SL-16 R/B               
1 19650U 88102B   22006.53039157  .00000029  00000+0  39140-4 0  9994
2 19650  71.0006 115.3463 0014038 179.3155 180.7990 14.15818202711282
INTERCOSMOS 24          
1 20261U 89080A   22006.45845632  .00000239  00000+0  69218-4 0  9996
2 20261  82.6019  12.6403 1201525 217.0380 134.1657 12.56250382475313
SL-14 R/B               
1 20262U 89080C   22006.53878405  .00000080  00000+0  15003-4 0  9997
2 20262  82.5934  70.0388 1237568  61.8329 310.2179 12.49005420469900
DELTA 2 R/B(1)          
1 20303U 89085B   22006.53815234  .00004055  00000+0  11869-3 0  9990
2 20303  35.6401  33.8560 0089085 199.6455 160.0830 15.30932946755594
DELTA 1 R/B             
1 20323U 89089B   22006.15749012  .00000075  00000+0  28775-4 0  9997
2 20323  97.1068  73.7269 0070318 244.7623 114.6274 14.48446381675044
ARIANE 40 R/B           
1 20443U 90005H   22006.59455012  .00000035  00000+0  25812-4 0  9997
2 20443  98.5058  76.1684 0011536  90.1616 270.0893 14.38165543673770
DELTA 2 R/B(1)          
1 20453U 90008B   22006.50214204  .00001226  00000+0  69380-4 0  9999
2 20453  35.6233 142.4877 0273663  12.6847 348.0585 14.87509668695766
COSMOS 2058             
1 20465U 90010A   22006.29454672  .00000592  00000+0  47211-4 0  9990
2 20465  82.4893  86.8040 0016866  87.5022 272.8131 14.98422611713340
SL-14 R/B               
1 20466U 90010B   22006.18845145  .00000115  00000+0  11758-4 0  9996
2 20466  82.5030 255.4256 0018971 272.8441  87.0601 14.81463198702782
SL-14 R/B               
1 20511U 90018B   22006.55295385  .00000085  00000+0  81140-5 0  9990
2 20511  82.5220 204.0123 0018729  57.4189   0.8852 14.80115817697149
HST                     
1 20580U 90037B   22006.51273736  .00000750  00000+0  34153-4 0  9999
2 20580  28.4688 161.2546 0002843  89.5780 308.7378 15.09925669541718
SL-16 R/B               
1 20625U 90046B   22006.08772632  .00000286  00000+0  17326-3 0  9996
2 20625  70.9984 256.7362 0012263 102.1842 258.0655 14.14676813632897
COSMOS 2084             
1 20663U 90055A   22006.58297514  .00000060  00000+0  23544-4 0  9994
2 20663  62.7940  70.7693 0099446  32.5100 328.2065 14.92423298708131
SL-6 R/B(2)             
1 20666U 90055D   22006.33944640  .00000307  00000+0  43705-4 0  9994
2 20666  62.7850 346.5476 0119988  56.3433 304.9037 14.92684205710055
SL-8 R/B                
1 20775U 90078B   22006.51613146  .00003981  00000+0  19161-3 0  9993
2 20775  82.9269 117.3166 0561646 231.6242 123.3227 14.37094386587243
SL-8 R/B                
1 21088U 91006B   22006.61103958 -.00000019  00000+0 -33947-4 0  9999
2 21088  82.9416 222.7834 0022300 343.5172  68.6604 13.77191239554413
OKEAN-3                 
1 21397U 91039A   22006.42399290  .00000456  00000+0  40922-4 0  9997
2 21397  82.5215 356.6959 0019308  70.3021 290.0280 14.93276628636996
COSMOS 2151             
1 21422U 91042A   22006.34989208  .00000348  00000+0  31454-4 0  9995
2 21422  82.5010 102.1968 0015296 131.9820 228.2705 14.92383573635503
SL-14 R/B               
1 21423U 91042B   22006.58306342  .00000092  00000+0  91386-5 0  9991
2 21423  82.4929 205.8920 0017158 193.2801 166.7963 14.79864792627684
ERS-1                   
1 21574U 91050A   22006.48987527  .00000075  00000+0  39629-4 0  9998
2 21574  98.6767 333.5444 0033708  40.3065 320.0611 14.37846022596740
ARIANE 40 R/B           
1 21610U 91050F   22006.21243712  .00000055  00000+0  30441-4 0  9992
2 21610  98.4024  78.7353 0003177  15.5303  46.8790 14.40990482599465
INTERCOSMOS 25          
1 21819U 91086A   22006.46726595  .00000027  00000+0 -14130-5 0  9992
2 21819  82.5811 145.8913 1515134 141.3388 230.6644 12.05459657312710
SL-8 R/B                
1 21876U 92008B   22006.43081966  .00000077  00000+0  63277-4 0  9992
2 21876  82.9278 320.2524 0036157  68.9462  48.5710 13.75694267499969
SL-8 R/B                
1 21938U 92020B   22006.58970970  .00000128  00000+0  11770-3 0  9990
2 21938  82.9291 204.7594 0028306 226.9682 185.9360 13.75293907491766
COSMOS 2219             
1 22219U 92076A   22006.27611149  .00000074  00000+0  64165-4 0  9997
2 22219  71.0594 321.5126 0017707   0.8616 359.2533 14.13666673503053
SL-16 R/B               
1 22220U 92076B   22006.56390796 -.00000263  00000+0 -10789-3 0  9997
2 22220  70.9995 155.6622 0015233 258.7488 171.4407 14.16481874506124
COSMOS 2221             
1 22236U 92080A   22006.23674261  .00000354  00000+0  35729-4 0  9996
2 22236  82.5086 287.0602 0015205 234.0502 125.9306 14.88192982553708
SL-16 R/B               
1 22285U 92093B   22006.29233711 -.00000298  00000+0 -12900-3 0  9995
2 22285  71.0221 321.2175 0002073 134.3821 225.7472 14.15070581497628
COSMOS 2228             
1 22286U 92094A   22006.10465380  .00000337  00000+0  33510-4 0  9999
2 22286  82.5197 244.1017 0021096 359.6159   0.5038 14.88415077548872
SL-16 R/B               
1 22566U 93016B   22006.56466792  .00000310  00000+0  18479-3 0  9990
2 22566  71.0063 173.2199 0008632 129.0475 231.1417 14.14988424486696
COSMOS 2242             
1 22626U 93024A   22006.40810079  .00000353  00000+0  35428-4 0  9991
2 22626  82.5222 272.1808 0018923 359.5957   0.5242 14.88260818553300
SL-16 R/B               
1 22803U 93059B   22006.38696004  .00000225  00000+0  13612-3 0  9991
2 22803  70.9909 342.3709 0016957   3.0910 357.0315 14.16849111463744
ARIANE 40 R/B           
1 22830U 93061H   22006.57250385  .00000016  00000+0  22839-4 0  9993
2 22830  98.6880  69.5426 0011992  95.8148 264.4402 14.31506671476109
COSMOS 2278             
1 23087U 94023A   22006.59404165 -.00000291  00000+0 -12865-3 0  9990
2 23087  71.0542 120.1128 0009858 210.2608 149.7946 14.13845016429496
SL-16 R/B               
1 23088U 94023B   22006.46974328 -.00000142  00000+0 -49225-4 0  9996
2 23088  70.9994  28.8792 0000958 102.6089 257.5141 14.14694261430645
SL-16 R/B               
1 23343U 94074B   22006.13371076  .00000060  00000+0  15702-4 0  9991
2 23343  97.9190  62.3580 0008142 116.1650 296.6808 14.76933235462207
SL-16 R/B               
1 23405U 94077B   22006.26382308  .00000001  00000+0  24911-4 0  9994
2 23405  70.9831 316.5410 0004458 294.1776  65.8880 14.15244539400671
ERS-2                   
1 23560U 95021A   22006.56975980  .00001750  00000+0  74281-4 0  9990
2 23560  98.5224 249.7283 0004367  48.3923 311.7685 15.24780465428638
ARIANE 40+ R/B          
1 23561U 95021B   22006.15713187  .00000062  00000+0  35504-4 0  9995
2 23561  98.6483  62.6369 0007071  18.0904  41.2500 14.38074662400384
SL-16 R/B               
1 23705U 95058B   22006.54291043  .00000195  00000+0  12480-3 0  9994
2 23705  71.0216 137.0117 0014656 279.0301  80.9163 14.15158851352343
SL-16 R/B               
1 24298U 96051B   22006.55667449 -.00000063  00000+0 -78786-5 0  9993
2 24298  70.8193 152.4544 0018935 233.2064 126.7319 14.12403235306571
ORBVIEW 2 (SEASTAR)     
1 24883U 97037A   22006.31594915  .00000064  00000+0  39095-4 0  9997
2 24883  98.6617 129.3754 0001799 203.9664 156.1437 14.33662550290071
SL-16 R/B               
1 25400U 98043G   22006.42702276 -.00000003  00000+0  17101-4 0  9992
2 25400  98.6599 304.4459 0010864 117.5723 242.6562 14.25492073221934
SL-16 R/B               
1 25407U 98045B   22006.58459731 -.00000284  00000+0 -11990-3 0  9994
2 25407  71.0108 143.5695 0008157 204.6822 155.3912 14.15847690211493
ISS (ZARYA)             
1 25544U 98067A   22006.54868645  .00000440  00000+0  15775-4 0  9992
2 25544  51.6452  57.0414 0005418   7.8702 138.4778 15.49868840320116
CZ-4B R/B               
1 25732U 99025C   22006.55604941  .00000022  00000+0  32715-4 0  9993
2 25732  98.8782  48.2092 0037810  31.4659  88.4175 14.17710702172312
OKEAN-O                 
1 25860U 99039A   22006.59680632  .00000095  00000+0  21065-4 0  9991
2 25860  98.1613  44.8822 0001159 115.6577 244.4752 14.76806206209365
SL-16 R/B               
1 25861U 99039B   22006.57512022  .00000065  00000+0  16279-4 0  9995
2 25861  98.1935  30.7709 0016606 130.1839 342.8593 14.78700942211571
DELTA 2 R/B             
1 25876U 99041E   22006.54829237  .00000014  00000+0  42139-4 0  9998
2 25876  51.7641 227.2492 0530703 201.1872 156.6315 14.04706184148466
HELIOS 1B               
1 25977U 99064A   22006.50696614  .00000113  00000+0  21149-4 0  9990
2 25977  98.3203 194.1574 0000929  21.5958 338.5293 14.82630178459289
TERRA                   
1 25994U 99068A   22006.56950350  .00000091  00000+0  30203-4 0  9995
2 25994  98.1568  82.0579 0001395  95.6715  40.5574 14.57143467172928
